[{"OBJECT_NAME":"STARLINK-31466","OBJECT_ID":"2024-064Y","EPOCH":"2026-03-03T03:56:10.815648","MEAN_MOTION":15.27579534,"ECCENTRICITY":0.0001268,"INCLINATION":42.9977,"RA_OF_ASC_NODE":93.3733,"ARG_OF_PERICENTER":257.6812,"MEAN_ANOMALY":102.3898,"EPHEMERIS_TYPE":0,"CLASSIFICATION_TYPE":"U","NORAD_CAT_ID":59420,"ELEMENT_SET_NO":999,"REV_AT_EPOCH":10822,"BSTAR":-2.9106e-5,"MEAN_MOTION_DOT":-1.063e-5,"MEAN_MOTION_DDOT":0},{"OBJECT_NAME":"STARLINK-11087 [DTC]","OBJECT_ID":"2024-065A","EPOCH":"2026-03-03T11:10:08.776704","MEAN_MOTION":15.69715137,"ECCENTRICITY":0.0001266,"INCLINATION":53.1582,"RA_OF_ASC_NODE":124.7049,"ARG_OF_PERICENTER":108.8878,"MEAN_ANOMALY":251.2277,"EPHEMERIS_TYPE":0,"CLASSIFICATION_TYPE":"U","NORAD_CAT_ID":59421,"ELEMENT_SET_NO":999,"REV_AT_EPOCH":11053,"BSTAR":5.5206e-5,"MEAN_MOTION_DOT":6.106e-5,"MEAN_MOTION_DDOT":0},{"OBJECT_NAME":"STARLINK-11090 [DTC]","OBJECT_ID":"2024-065B","EPOCH":"2026-03-03T10:48:57.716928","MEAN_MOTION":15.69699013,"ECCENTRICITY":0.0001287,"INCLINATION":53.1591,"RA_OF_ASC_NODE":124.6038,"ARG_OF_PERICENTER":103.3515,"MEAN_ANOMALY":256.7646,"EPHEMERIS_TYPE":0,"CLASSIFICATION_TYPE":"U","NORAD_CAT_ID":59422,"ELEMENT_SET_NO":999,"REV_AT_EPOCH":11055,"BSTAR":-3.201e-6,"MEAN_MOTION_DOT":-9.76e-6,"MEAN_MOTION_DDOT":0},{"OBJECT_NAME":"STARLINK-11093 [DTC]","OBJECT_ID":"2024-065C","EPOCH":"2026-03-03T10:56:00.842784","MEAN_MOTION":15.69708155,"ECCENTRICITY":0.0001313,"INCLINATION":53.159,"RA_OF_ASC_NODE":124.6361,"ARG_OF_PERICENTER":139.245,"MEAN_ANOMALY":220.8666,"EPHEMERIS_TYPE":0,"CLASSIFICATION_TYPE":"U","NORAD_CAT_ID":59423,"ELEMENT_SET_NO":999,"REV_AT_EPOCH":11054,"BSTAR":2.173e-5,"MEAN_MOTION_DOT":2.044e-5,"MEAN_MOTION_DDOT":0},{"OBJECT_NAME":"STARLINK-11083 [DTC]","OBJECT_ID":"2024-065D","EPOCH":"2026-03-03T09:31:23.571840","MEAN_MOTION":15.69721486,"ECCENTRICITY":0.0001399,"INCLINATION":53.1586,"RA_OF_ASC_NODE":124.9857,"ARG_OF_PERICENTER":91.4627,"MEAN_ANOMALY":268.6552,"EPHEMERIS_TYPE":0,"CLASSIFICATION_TYPE":"U","NORAD_CAT_ID":59424,"ELEMENT_SET_NO":999,"REV_AT_EPOCH":11048,"BSTAR":-1.4249e-5,"MEAN_MOTION_DOT":-2.316e-5,"MEAN_MOTION_DDOT":0},{"OBJECT_NAME":"STARLINK-11085 [DTC]","OBJECT_ID":"2024-065E","EPOCH":"2026-03-03T10:41:53.381472","MEAN_MOTION":15.69710568,"ECCENTRICITY":0.0001129,"INCLINATION":53.1587,"RA_OF_ASC_NODE":124.5718,"ARG_OF_PERICENTER":78.1429,"MEAN_ANOMALY":281.9716,"EPHEMERIS_TYPE":0,"CLASSIFICATION_TYPE":"U","NORAD_CAT_ID":59425,"ELEMENT_SET_NO":999,"REV_AT_EPOCH":11049,"BSTAR":9.8646e-6,"MEAN_MOTION_DOT":6.07e-6,"MEAN_MOTION_DDOT":0},{"OBJECT_NAME":"STARLINK-11089 [DTC]","OBJECT_ID":"2024-065F","EPOCH":"2026-03-03T11:17:14.466048","MEAN_MOTION":15.69673763,"ECCENTRICITY":0.0001172,"INCLINATION":53.1588,"RA_OF_ASC_NODE":124.7525,"ARG_OF_PERICENTER":125.2409,"MEAN_ANOMALY":234.8718,"EPHEMERIS_TYPE":0,"CLASSIFICATION_TYPE":"U","NORAD_CAT_ID":59426,"ELEMENT_SET_NO":999,"REV_AT_EPOCH":11054,"BSTAR":-3.4087e-5,"MEAN_MOTION_DOT":-4.709e-5,"MEAN_MOTION_DDOT":0},{"OBJECT_NAME":"STARLINK-31757","OBJECT_ID":"2024-065G","EPOCH":"2026-03-02T23:39:56.146464","MEAN_MOTION":15.30198172,"ECCENTRICITY":0.0001015,"INCLINATION":53.1596,"RA_OF_ASC_NODE":312.7818,"ARG_OF_PERICENTER":91.6077,"MEAN_ANOMALY":268.504,"EPHEMERIS_TYPE":0,"CLASSIFICATION_TYPE":"U","NORAD_CAT_ID":59427,"ELEMENT_SET_NO":999,"REV_AT_EPOCH":10790,"BSTAR":8.3102e-5,"MEAN_MOTION_DOT":2.103e-5,"MEAN_MOTION_DDOT":0},{"OBJECT_NAME":"STARLINK-31773","OBJECT_ID":"2024-065J","EPOCH":"2026-03-02T23:13:21.237888","MEAN_MOTION":15.30192349,"ECCENTRICITY":0.000121,"INCLINATION":53.1601,"RA_OF_ASC_NODE":314.7899,"ARG_OF_PERICENTER":67.8708,"MEAN_ANOMALY":292.2421,"EPHEMERIS_TYPE":0,"CLASSIFICATION_TYPE":"U","NORAD_CAT_ID":59429,"ELEMENT_SET_NO":999,"REV_AT_EPOCH":10787,"BSTAR":5.2734e-5,"MEAN_MOTION_DOT":1.203e-5,"MEAN_MOTION_DDOT":0},{"OBJECT_NAME":"STARLINK-31772","OBJECT_ID":"2024-065K","EPOCH":"2026-03-03T02:25:14.635776","MEAN_MOTION":15.30195861,"ECCENTRICITY":0.0001269,"INCLINATION":53.1605,"RA_OF_ASC_NODE":312.0621,"ARG_OF_PERICENTER":74.8198,"MEAN_ANOMALY":285.2943,"EPHEMERIS_TYPE":0,"CLASSIFICATION_TYPE":"U","NORAD_CAT_ID":59430,"ELEMENT_SET_NO":999,"REV_AT_EPOCH":10792,"BSTAR":2.8695e-5,"MEAN_MOTION_DOT":4.91e-6,"MEAN_MOTION_DDOT":0},{"OBJECT_NAME":"STARLINK-31613","OBJECT_ID":"2024-065L","EPOCH":"2026-03-02T23:35:22.317216","MEAN_MOTION":15.30197567,"ECCENTRICITY":9.8e-5,"INCLINATION":53.1602,"RA_OF_ASC_NODE":312.7514,"ARG_OF_PERICENTER":95.9772,"MEAN_ANOMALY":264.1341,"EPHEMERIS_TYPE":0,"CLASSIFICATION_TYPE":"U","NORAD_CAT_ID":59431,"ELEMENT_SET_NO":999,"REV_AT_EPOCH":10790,"BSTAR":4.486e-5,"MEAN_MOTION_DOT":9.7e-6,"MEAN_MOTION_DDOT":0},{"OBJECT_NAME":"STARLINK-31780","OBJECT_ID":"2024-065M","EPOCH":"2026-03-02T23:46:01.303104","MEAN_MOTION":15.30196842,"ECCENTRICITY":0.0001656,"INCLINATION":53.1597,"RA_OF_ASC_NODE":312.798,"ARG_OF_PERICENTER":73.2936,"MEAN_ANOMALY":286.8247,"EPHEMERIS_TYPE":0,"CLASSIFICATION_TYPE":"U","NORAD_CAT_ID":59432,"ELEMENT_SET_NO":999,"REV_AT_EPOCH":10790,"BSTAR":4.513e-5,"MEAN_MOTION_DOT":9.77e-6,"MEAN_MOTION_DDOT":0},{"OBJECT_NAME":"STARLINK-31740","OBJECT_ID":"2024-065N","EPOCH":"2026-03-03T02:18:23.905728","MEAN_MOTION":15.30203133,"ECCENTRICITY":0.0001143,"INCLINATION":53.1595,"RA_OF_ASC_NODE":314.1691,"ARG_OF_PERICENTER":71.7097,"MEAN_ANOMALY":288.4028,"EPHEMERIS_TYPE":0,"CLASSIFICATION_TYPE":"U","NORAD_CAT_ID":59433,"ELEMENT_SET_NO":999,"REV_AT_EPOCH":10789,"BSTAR":0.00012599,"MEAN_MOTION_DOT":3.374e-5,"MEAN_MOTION_DDOT":0},{"OBJECT_NAME":"STARLINK-31580","OBJECT_ID":"2024-065P","EPOCH":"2026-03-02T23:22:27.692832","MEAN_MOTION":15.30187116,"ECCENTRICITY":0.0001051,"INCLINATION":53.1596,"RA_OF_ASC_NODE":314.8283,"ARG_OF_PERICENTER":88.3267,"MEAN_ANOMALY":271.7854,"EPHEMERIS_TYPE":0,"CLASSIFICATION_TYPE":"U","NORAD_CAT_ID":59434,"ELEMENT_SET_NO":999,"REV_AT_EPOCH":10787,"BSTAR":8.8228e-5,"MEAN_MOTION_DOT":2.254e-5,"MEAN_MOTION_DDOT":0},{"OBJECT_NAME":"STARLINK-31696","OBJECT_ID":"2024-065Q","EPOCH":"2026-03-02T23:30:48.931200","MEAN_MOTION":15.30196219,"ECCENTRICITY":0.0001173,"INCLINATION":53.1608,"RA_OF_ASC_NODE":312.7296,"ARG_OF_PERICENTER":82.8607,"MEAN_ANOMALY":277.2527,"EPHEMERIS_TYPE":0,"CLASSIFICATION_TYPE":"U","NORAD_CAT_ID":59435,"ELEMENT_SET_NO":999,"REV_AT_EPOCH":10790,"BSTAR":3.3038e-5,"MEAN_MOTION_DOT":6.19e-6,"MEAN_MOTION_DDOT":0},{"OBJECT_NAME":"STARLINK-31700","OBJECT_ID":"2024-065R","EPOCH":"2026-03-02T23:21:41.752224","MEAN_MOTION":15.3019811,"ECCENTRICITY":0.0001193,"INCLINATION":53.1593,"RA_OF_ASC_NODE":312.6884,"ARG_OF_PERICENTER":82.9601,"MEAN_ANOMALY":277.1535,"EPHEMERIS_TYPE":0,"CLASSIFICATION_TYPE":"U","NORAD_CAT_ID":59436,"ELEMENT_SET_NO":999,"REV_AT_EPOCH":10790,"BSTAR":0.00010622,"MEAN_MOTION_DOT":2.788e-5,"MEAN_MOTION_DDOT":0}]
