STARLINK-31466          
1 59420U 24064Y   26062.16401407 -.00001063  00000+0 -29106-4 0  9998
2 59420  42.9977  93.3733 0001268 257.6812 102.3898 15.27579534108228
STARLINK-11087 [DTC]    
1 59421U 24065A   26062.46537936  .00006106  00000+0  55206-4 0  9991
2 59421  53.1582 124.7049 0001266 108.8878 251.2277 15.69715137110530
STARLINK-11090 [DTC]    
1 59422U 24065B   26062.45066802 -.00000976  00000+0 -32010-5 0  9990
2 59422  53.1591 124.6038 0001287 103.3515 256.7646 15.69699013110555
STARLINK-11093 [DTC]    
1 59423U 24065C   26062.45556531  .00002044  00000+0  21730-4 0  9996
2 59423  53.1590 124.6361 0001313 139.2450 220.8666 15.69708155110541
STARLINK-11083 [DTC]    
1 59424U 24065D   26062.39680060 -.00002316  00000+0 -14249-4 0  9996
2 59424  53.1586 124.9857 0001399  91.4627 268.6552 15.69721486110488
STARLINK-11085 [DTC]    
1 59425U 24065E   26062.44575673  .00000607  00000+0  98646-5 0  9999
2 59425  53.1587 124.5718 0001129  78.1429 281.9716 15.69710568110495
STARLINK-11089 [DTC]    
1 59426U 24065F   26062.47030632 -.00004709  00000+0 -34087-4 0  9991
2 59426  53.1588 124.7525 0001172 125.2409 234.8718 15.69673763110545
STARLINK-31757          
1 59427U 24065G   26061.98606651  .00002103  00000+0  83102-4 0  9993
2 59427  53.1596 312.7818 0001015  91.6077 268.5040 15.30198172107904
STARLINK-31773          
1 59429U 24065J   26061.96760692  .00001203  00000+0  52734-4 0  9996
2 59429  53.1601 314.7899 0001210  67.8708 292.2421 15.30192349107870
STARLINK-31772          
1 59430U 24065K   26062.10086384  .00000491  00000+0  28695-4 0  9991
2 59430  53.1605 312.0621 0001269  74.8198 285.2943 15.30195861107924
STARLINK-31613          
1 59431U 24065L   26061.98289719  .00000970  00000+0  44860-4 0  9998
2 59431  53.1602 312.7514 0000980  95.9772 264.1341 15.30197567107902
STARLINK-31780          
1 59432U 24065M   26061.99029286  .00000977  00000+0  45130-4 0  9999
2 59432  53.1597 312.7980 0001656  73.2936 286.8247 15.30196842107906
STARLINK-31740          
1 59433U 24065N   26062.09611002  .00003374  00000+0  12599-3 0  9991
2 59433  53.1595 314.1691 0001143  71.7097 288.4028 15.30203133107897
STARLINK-31580          
1 59434U 24065P   26061.97393163  .00002254  00000+0  88228-4 0  9992
2 59434  53.1596 314.8283 0001051  88.3267 271.7854 15.30187116107876
STARLINK-31696          
1 59435U 24065Q   26061.97973300  .00000619  00000+0  33038-4 0  9992
2 59435  53.1608 312.7296 0001173  82.8607 277.2527 15.30196219107900
STARLINK-31700          
1 59436U 24065R   26061.97339991  .00002788  00000+0  10622-3 0  9997
2 59436  53.1593 312.6884 0001193  82.9601 277.1535 15.30198110107903
